[{"OBJECT_NAME":"KUIPER-00245","OBJECT_ID":"2025-301T","EPOCH":"2026-03-09T08:04:13.428192","MEAN_MOTION":14.79898157,"ECCENTRICITY":4.283e-5,"INCLINATION":51.9025,"RA_OF_ASC_NODE":84.6907,"ARG_OF_PERICENTER":68.118,"MEAN_ANOMALY":291.9828,"EPHEMERIS_TYPE":0,"CLASSIFICATION_TYPE":"U","NORAD_CAT_ID":67150,"ELEMENT_SET_NO":999,"REV_AT_EPOCH":1343,"BSTAR":0.0005764726,"MEAN_MOTION_DOT":4.173e-5,"MEAN_MOTION_DDOT":0},{"OBJECT_NAME":"CZ-6A DEB","OBJECT_ID":"2022-151AD","EPOCH":"2026-03-09T17:57:16.876800","MEAN_MOTION":14.82404648,"ECCENTRICITY":0.00830504,"INCLINATION":98.5956,"RA_OF_ASC_NODE":149.7366,"ARG_OF_PERICENTER":144.8242,"MEAN_ANOMALY":215.8491,"EPHEMERIS_TYPE":0,"CLASSIFICATION_TYPE":"U","NORAD_CAT_ID":54286,"ELEMENT_SET_NO":999,"REV_AT_EPOCH":17665,"BSTAR":0.0024695281,"MEAN_MOTION_DOT":0.00021003,"MEAN_MOTION_DDOT":0}]
